NORAD_CAT_ID,OBJECT_NAME,OBJECT_TYPE,EPOCH,MEAN_MOTION,ECCENTRICITY,INCLINATION,RA_OF_ASC_NODE,ARG_OF_PERICENTER,MEAN_ANOMALY,BSTAR,MEAN_MOTION_DOT,MEAN_MOTION_DDOT,TLE_LINE0,TLE_LINE1,TLE_LINE2,SEMIMAJOR_AXIS,PERIOD,APOGEE,PERIGEE,DECAYED
53536.0,STARLINK-4053,PAYLOAD,2023-02-05 15:15:38,15.08677422,0.0001471,53.216,88.0808,141.521,218.5887,-0.0012746,-0.00020426,0.0,0 STARLINK-4053,1 53536U 22101K   23036.63586532 -.00020426  00000-0 -12746-2 0  9998,2 53536  53.2160  88.0808 0001471 141.5210 218.5887 15.08677422 26009,6918.377,95.448,541.26,539.225,0.0
53536.0,STARLINK-4053,PAYLOAD,2023-02-05 20:01:57,15.08580326,0.0001125,53.2161,87.1896,74.2639,285.8477,-0.0020281,-0.00032192,0.0,0 STARLINK-4053,1 53536U 22101K   23036.83469343 -.00032192  00000-0 -20281-2 0  9996,2 53536  53.2161  87.1896 0001125  74.2639 285.8477 15.08580326 26031,6918.674,95.454,541.318,539.761,0.0
53536.0,STARLINK-4053,PAYLOAD,2023-02-06 02:23:47,15.08403012,0.0001228,53.2164,86.0039,85.9125,274.2007,-0.0033475,-0.00052545,0.0,0 STARLINK-4053,1 53536U 22101K   23037.09985084 -.00052545  00000-0 -33475-2 0  9993,2 53536  53.2164  86.0039 0001228  85.9125 274.2007 15.08403012 26075,6919.216,95.465,541.931,540.232,0.0
53536.0,STARLINK-4053,PAYLOAD,2023-02-06 08:45:38,15.08230882,0.0001424,53.2165,84.8155,61.9546,298.1589,-0.0045827,-0.00071305,0.0,0 STARLINK-4053,1 53536U 22101K   23037.36502833 -.00071305  00000-0 -45827-2 0  9999,2 53536  53.2165  84.8155 0001424  61.9546 298.1589 15.08230882 26118,6919.743,95.476,542.593,540.622,0.0
53536.0,STARLINK-4053,PAYLOAD,2023-02-06 16:43:00,15.08015179,0.0001593,53.2169,83.3297,127.8536,232.26,-0.0060986,-0.00093946,0.0,0 STARLINK-4053,1 53536U 22101K   23037.69653439 -.00093946  00000-0 -60986-2 0  9992,2 53536  53.2169  83.3297 0001593 127.8536 232.2600 15.08015179 26169,6920.403,95.49,543.37,541.165,0.0
53536.0,STARLINK-4053,PAYLOAD,2023-02-06 19:53:56,15.07957311,0.0001561,53.2173,82.7372,95.4296,264.6874,-0.0063137,-0.00097054,0.0,0 STARLINK-4053,1 53536U 22101K   23037.82912733 -.00097054  00000-0 -63137-2 0  9997,2 53536  53.2173  82.7372 0001561  95.4296 264.6874 15.07957311 26185,6920.58,95.493,543.525,541.364,0.0
53536.0,STARLINK-4053,PAYLOAD,2023-02-07 06:00:00,15.07222595,0.0001501,53.2152,80.8494,95.9464,30.6956,-0.0025854,-0.0003944,0.0,0 STARLINK-4053,1 53536U 22101K   23038.25001157 -.00039440  00000-0 -25854-2 0  9993,2 53536  53.2152  80.8494 0001501  95.9464  30.6956 15.07222595 26240,6922.829,95.54,545.733,543.654,0.0
53536.0,STARLINK-4053,PAYLOAD,2023-02-07 14:00:01,15.07170164,0.0001396,53.2149,79.3577,85.3599,50.9267,0.003111,0.00047345,0.0,0 STARLINK-4053,1 53536U 22101K   23038.58334491  .00047345  00000-0  31110-2 0  9992,2 53536  53.2149  79.3577 0001396  85.3599  50.9267 15.07170164  1309,6922.989,95.543,545.821,543.888,0.0
53536.0,STARLINK-4053,PAYLOAD,2023-02-07 22:00:00,15.07179591,0.0001336,53.2148,77.8632,94.3641,51.5367,0.0036473,0.00055635,0.0,0 STARLINK-4053,1 53536U 22101K   23038.91667824  .00055635  00000-0  36473-2 0  9996,2 53536  53.2148  77.8632 0001336  94.3641  51.5367 15.07179591 26347,6922.96,95.543,545.75,543.9,0.0
53536.0,STARLINK-4053,PAYLOAD,2023-02-08 14:00:01,15.07164452,0.0001452,53.2148,74.8793,70.9834,94.211,0.0019329,0.00029229,0.0,0 STARLINK-4053,1 53536U 22101K   23039.58334491  .00029229  00000-0  19329-2 0  9992,2 53536  53.2148  74.8793 0001452  70.9834  94.2110 15.07164452 26446,6923.007,95.544,545.877,543.866,0.0
53536.0,STARLINK-4053,PAYLOAD,2023-02-08 22:00:00,15.07162079,0.0001419,53.215,73.3848,77.6823,97.1131,0.0043064,0.00065804,0.0,0 STARLINK-4053,1 53536U 22101K   23039.91667824  .00065804  00000-0  43064-2 0  9990,2 53536  53.2150  73.3848 0001419  77.6823  97.1131 15.07162079  1305,6923.014,95.544,545.861,543.897,0.0
53536.0,STARLINK-4053,PAYLOAD,2023-02-09 12:00:00,15.07191056,0.0001534,53.2154,70.7744,78.3783,23.2701,-0.00067765,-0.00010579,0.0,0 STARLINK-4053,1 53536U 22101K   23040.50001157 -.00010579  00000-0 -67765-3 0  9994,2 53536  53.2154  70.7744 0001534  78.3783  23.2701 15.07191056  1306,6922.925,95.542,545.852,543.728,0.0
53536.0,STARLINK-4053,PAYLOAD,2023-02-09 22:00:00,15.07166467,0.0001471,53.2156,68.9065,90.7747,112.8949,0.0047959,0.00073404,0.0,0 STARLINK-4053,1 53536U 22101K   23040.91667824  .00073404  00000-0  47959-2 0  9994,2 53536  53.2156  68.9065 0001471  90.7747 112.8949 15.07166467 26642,6923.0,95.544,545.884,543.847,0.0
53536.0,STARLINK-4053,PAYLOAD,2023-02-10 00:00:00,15.07169076,0.0001511,53.2156,68.5331,92.8105,203.2522,0.0047996,0.00073467,0.0,0 STARLINK-4053,1 53536U 22101K   23041.00001157  .00073467  00000-0  47996-2 0  9996,2 53536  53.2156  68.5331 0001511  92.8105 203.2522 15.07169076  1307,6922.992,95.543,545.904,543.811,0.0
53536.0,STARLINK-4053,PAYLOAD,2023-02-10 04:00:00,15.0722791,0.0001535,53.2159,67.7874,92.1629,28.694,-0.0016073,-0.00024681,0.0,0 STARLINK-4053,1 53536U 22101K   23041.16667824 -.00024681  00000-0 -16073-2 0  9990,2 53536  53.2159  67.7874 0001535  92.1629  28.6940 15.07227910  1308,6922.812,95.54,545.74,543.615,0.0
53536.0,STARLINK-4053,PAYLOAD,2023-02-10 08:14:26,15.07209262,0.0001778,53.2173,66.9967,113.7197,246.3981,4.5285e-05,4.06e-06,0.0,0 STARLINK-4053,1 53536U 22101K   23041.34336595  .00000406  00000-0  45285-4 0  9994,2 53536  53.2173  66.9967 0001778 113.7197 246.3981 15.07209262 26713,6922.869,95.541,545.965,543.504,0.0
53536.0,STARLINK-4053,PAYLOAD,2023-02-11 04:55:48,15.0720686,0.0001756,53.2178,63.1343,105.6951,254.4234,6.0779e-05,6.42e-06,0.0,0 STARLINK-4053,1 53536U 22101K   23042.20542274  .00000642  00000-0  60779-4 0  9990,2 53536  53.2178  63.1343 0001756 105.6951 254.4234 15.07206860 26845,6922.877,95.541,545.957,543.526,0.0
53536.0,STARLINK-4053,PAYLOAD,2023-02-11 17:39:42,15.07213319,0.0001586,53.217,60.7565,77.0621,283.0547,0.00015319,2.05e-05,0.0,0 STARLINK-4053,1 53536U 22101K   23042.73590982  .00002050  00000-0  15319-3 0  9991,2 53536  53.2170  60.7565 0001586  77.0621 283.0547 15.07213319 26924,6922.857,95.541,545.82,543.624,0.0
53536.0,STARLINK-4053,PAYLOAD,2023-02-12 11:10:06,15.07209608,0.0001489,53.2175,57.4939,99.9971,260.1188,9.4137e-05,1.15e-05,0.0,0 STARLINK-4053,1 53536U 22101K   23043.46534833  .00001150  00000-0  94137-4 0  9991,2 53536  53.2175  57.4939 0001489  99.9971 260.1188 15.07209608 27036,6922.868,95.541,545.764,543.703,0.0
53536.0,STARLINK-4053,PAYLOAD,2023-02-13 03:05:00,15.07200267,0.0001532,53.2174,54.5235,80.4451,279.6713,-3.429e-05,-8.05e-06,0.0,0 STARLINK-4053,1 53536U 22101K   23044.12847963 -.00000805  00000-0 -34290-4 0  9998,2 53536  53.2174  54.5235 0001532  80.4451 279.6713 15.07200267 27131,6922.897,95.541,545.823,543.701,0.0
53536.0,STARLINK-4053,PAYLOAD,2023-02-13 09:26:57,15.07215171,0.0001911,53.2179,53.3384,84.4168,275.7041,0.00012749,1.658e-05,0.0,0 STARLINK-4053,1 53536U 22101K   23044.39371578  .00001658  00000-0  12749-3 0  9990,2 53536  53.2179  53.3384 0001911  84.4168 275.7041 15.07215171 27173,6922.851,95.54,546.039,543.393,0.0
53536.0,STARLINK-4053,PAYLOAD,2023-02-13 17:24:24,15.07203414,0.0002034,53.2176,51.8522,80.8099,279.3123,-1.1316e-05,-4.56e-06,0.0,0 STARLINK-4053,1 53536U 22101K   23044.72528093 -.00000456  00000-0 -11316-4 0  9990,2 53536  53.2176  51.8522 0002034  80.8099 279.3123 15.07203414 27221,6922.887,95.541,546.16,543.344,0.0
53536.0,STARLINK-4053,PAYLOAD,2023-02-14 12:30:16,15.07209292,0.0001453,53.2175,48.2891,87.7732,272.3426,9.8211e-05,1.212e-05,0.0,0 STARLINK-4053,1 53536U 22101K   23045.52102271  .00001212  00000-0  98211-4 0  9993,2 53536  53.2175  48.2891 0001453  87.7732 272.3426 15.07209292 27345,6922.869,95.541,545.74,543.728,0.0
53536.0,STARLINK-4053,PAYLOAD,2023-02-14 17:16:40,15.07256895,7.83e-05,53.2175,47.398,122.1678,237.9389,0.00048158,7.065e-05,0.0,0 STARLINK-4053,1 53536U 22101K   23045.71991513  .00007065  00000-0  48158-3 0  9995,2 53536  53.2175  47.3980 0000783 122.1678 237.9389 15.07256895 27371,6922.724,95.538,545.131,544.046,0.0
53536.0,STARLINK-4053,PAYLOAD,2023-02-15 07:35:34,15.07608324,0.0001297,53.2186,44.7253,108.4969,251.6163,0.0033944,0.00052341,0.0,0 STARLINK-4053,1 53536U 22101K   23046.31637302  .00052341  00000-0  33944-2 0  9998,2 53536  53.2186  44.7253 0001297 108.4969 251.6163 15.07608324 27469,6921.648,95.516,544.41,542.615,0.0
53536.0,STARLINK-4053,PAYLOAD,2023-02-15 10:46:27,15.07660657,0.0001303,53.2179,44.1301,99.5316,260.5823,0.0037539,0.00058045,0.0,0 STARLINK-4053,1 53536U 22101K   23046.44892774  .00058045  00000-0  37539-2 0  9999,2 53536  53.2179  44.1301 0001303  99.5316 260.5823 15.07660657 27484,6921.488,95.512,544.254,542.451,0.0
53536.0,STARLINK-4053,PAYLOAD,2023-02-15 17:08:20,15.07840014,8.94e-05,53.2175,42.9419,122.0016,238.1063,0.0074076,0.00116336,0.0,0 STARLINK-4053,1 53536U 22101K   23046.71412396  .00116336  00000-0  74076-2 0  9992,2 53536  53.2175  42.9419 0000894 122.0016 238.1063 15.07840014 27528,6920.939,95.501,543.422,542.185,0.0
53536.0,STARLINK-4053,PAYLOAD,2023-02-16 10:37:47,15.08351249,4.49e-05,53.2174,39.6711,127.9526,232.1507,0.010385,0.00166689,0.0,0 STARLINK-4053,1 53536U 22101K   23047.44290671  .00166689  00000-0  10385-1 0  9991,2 53536  53.2174  39.6711 0000449 127.9526 232.1507 15.08351249 27638,6919.375,95.468,541.55,540.929,0.0
53536.0,STARLINK-4053,PAYLOAD,2023-02-17 22:00:00,15.0880166,0.0001265,53.2172,33.0551,108.7358,340.7575,0.0036289,0.00057879,0.0,0 STARLINK-4053,1 53536U 22101K   23048.91667824  .00057879  00000-0  36289-2 0  9994,2 53536  53.2172  33.0551 0001265 108.7358 340.7575 15.08801660  1307,6917.998,95.44,540.738,538.987,0.0
53536.0,STARLINK-4053,PAYLOAD,2023-02-18 14:00:01,15.08841557,0.0001161,53.2172,30.0634,96.1292,16.5259,-0.00039058,-6.499e-05,0.0,0 STARLINK-4053,1 53536U 22101K   23049.58334491 -.00006499  00000-0 -39058-3 0  9991,2 53536  53.2172  30.0634 0001161  96.1292  16.5259 15.08841557 27953,6917.876,95.437,540.544,538.937,0.0
